STARLINK-31205          
1 59046U 24038Z   26075.73129148 -.00002591  00000+0 -84683-4 0  9997
2 59046  43.0029 343.9251 0001657 244.0993 115.9688 15.27567818115871
STARLINK-31265          
1 59074U 24041A   26075.83129526 -.00019175  00000+0 -68742-3 0  9996
2 59074  42.9995 270.3788 0001437 254.4349 105.6344 15.27659197115367
STARLINK-31276          
1 59075U 24041B   26074.81840542 -.00002277  00000+0 -73286-4 0  9997
2 59075  42.9993 275.6812 0001678 236.7905 123.2786 15.27566144115264
STARLINK-31259          
1 59076U 24041C   26075.80305247 -.00000386  00000+0 -45019-5 0  9999
2 59076  43.0032 270.1749 0001458 262.4412  97.6274 15.27583035114314
STARLINK-31281          
1 59077U 24041D   26075.80691196 -.00000738  00000+0 -17286-4 0  9996
2 59077  43.0018 270.2018 0001106 231.9648 128.1104 15.27572453115417
STARLINK-31274          
1 59078U 24041E   26075.83645198 -.00001840  00000+0 -57316-4 0  9994
2 59078  42.9989 270.4152 0001034 265.3959  94.6774 15.27596807115363
STARLINK-31257          
1 59079U 24041F   26075.23128208 -.00000438  00000+0 -63778-5 0  9999
2 59079  43.0013 273.6154 0001267 270.0565  90.0141 15.27573910115273
STARLINK-31299          
1 59080U 24041G   26075.86836461  .00942784  40232-3  22440-2 0  9997
2 59080  42.9799 146.5866 0022623  49.6630 310.6218 15.95379338116825
STARLINK-31292          
1 59081U 24041H   26075.87612272  .00003733  00000+0  14500-3 0  9997
2 59081  42.9989 269.8584 0001196 261.9505  98.1211 15.27600676115361
STARLINK-31286          
1 59082U 24041J   26075.81461843  .00006944  00000+0  26161-3 0  9991
2 59082  42.9990 270.2561 0001615 271.0508  89.0158 15.27583265115448
STARLINK-31252          
1 59083U 24041K   26075.02385829 -.00000597  00000+0 -12191-4 0  9993
2 59083  43.0024 191.7448 0000954 291.8439  68.2311 15.27563819116240
STARLINK-31261          
1 59084U 24041L   26075.84288322 -.00000407  00000+0 -52535-5 0  9991
2 59084  43.0032 270.4633 0001321 281.8809  78.1894 15.27584785115419
STARLINK-31290          
1 59085U 24041M   26075.79856895  .00011711  00000+0  43502-3 0  9992
2 59085  42.9985 256.2859 0000318 284.2556  75.8260 15.27533044115668
STARLINK-31279          
1 59086U 24041N   26075.59548504  .00000907  00000+0  42509-4 0  9998
2 59086  43.0009 272.0458 0000790 229.7025 130.3758 15.27550431115374
STARLINK-31266          
1 59087U 24041P   26074.57614552 -.00001592  00000+0 -48386-4 0  9995
2 59087  42.9997 277.2992 0001314 279.7121  80.3582 15.27560528115225
STARLINK-31313          
1 59088U 24041Q   26075.23255253  .00000978  00000+0  45029-4 0  9995
2 59088  42.9993 273.6253 0000778 269.1641  90.9121 15.27584651115279
