[{"OBJECT_NAME":"STARLINK-31205","OBJECT_ID":"2024-038Z","EPOCH":"2026-03-16T17:33:03.583872","MEAN_MOTION":15.27567818,"ECCENTRICITY":0.0001657,"INCLINATION":43.0029,"RA_OF_ASC_NODE":343.9251,"ARG_OF_PERICENTER":244.0993,"MEAN_ANOMALY":115.9688,"EPHEMERIS_TYPE":0,"CLASSIFICATION_TYPE":"U","NORAD_CAT_ID":59046,"ELEMENT_SET_NO":999,"REV_AT_EPOCH":11587,"BSTAR":-8.4683e-5,"MEAN_MOTION_DOT":-2.591e-5,"MEAN_MOTION_DDOT":0},{"OBJECT_NAME":"STARLINK-31265","OBJECT_ID":"2024-041A","EPOCH":"2026-03-16T19:57:03.910464","MEAN_MOTION":15.27659197,"ECCENTRICITY":0.0001437,"INCLINATION":42.9995,"RA_OF_ASC_NODE":270.3788,"ARG_OF_PERICENTER":254.4349,"MEAN_ANOMALY":105.6344,"EPHEMERIS_TYPE":0,"CLASSIFICATION_TYPE":"U","NORAD_CAT_ID":59074,"ELEMENT_SET_NO":999,"REV_AT_EPOCH":11536,"BSTAR":-0.00068742,"MEAN_MOTION_DOT":-0.00019175,"MEAN_MOTION_DDOT":0},{"OBJECT_NAME":"STARLINK-31276","OBJECT_ID":"2024-041B","EPOCH":"2026-03-15T19:38:30.228288","MEAN_MOTION":15.27566144,"ECCENTRICITY":0.00016786,"INCLINATION":42.9993,"RA_OF_ASC_NODE":275.6812,"ARG_OF_PERICENTER":236.7905,"MEAN_ANOMALY":123.2786,"EPHEMERIS_TYPE":0,"CLASSIFICATION_TYPE":"U","NORAD_CAT_ID":59075,"ELEMENT_SET_NO":999,"REV_AT_EPOCH":11526,"BSTAR":-7.3286298e-5,"MEAN_MOTION_DOT":-2.277e-5,"MEAN_MOTION_DDOT":0},{"OBJECT_NAME":"STARLINK-31259","OBJECT_ID":"2024-041C","EPOCH":"2026-03-16T19:16:23.733408","MEAN_MOTION":15.27583035,"ECCENTRICITY":0.0001458,"INCLINATION":43.0032,"RA_OF_ASC_NODE":270.1749,"ARG_OF_PERICENTER":262.4412,"MEAN_ANOMALY":97.6274,"EPHEMERIS_TYPE":0,"CLASSIFICATION_TYPE":"U","NORAD_CAT_ID":59076,"ELEMENT_SET_NO":999,"REV_AT_EPOCH":11431,"BSTAR":-4.5019e-6,"MEAN_MOTION_DOT":-3.86e-6,"MEAN_MOTION_DDOT":0},{"OBJECT_NAME":"STARLINK-31281","OBJECT_ID":"2024-041D","EPOCH":"2026-03-16T19:21:57.193344","MEAN_MOTION":15.27572453,"ECCENTRICITY":0.0001106,"INCLINATION":43.0018,"RA_OF_ASC_NODE":270.2018,"ARG_OF_PERICENTER":231.9648,"MEAN_ANOMALY":128.1104,"EPHEMERIS_TYPE":0,"CLASSIFICATION_TYPE":"U","NORAD_CAT_ID":59077,"ELEMENT_SET_NO":999,"REV_AT_EPOCH":11541,"BSTAR":-1.7286e-5,"MEAN_MOTION_DOT":-7.38e-6,"MEAN_MOTION_DDOT":0},{"OBJECT_NAME":"STARLINK-31274","OBJECT_ID":"2024-041E","EPOCH":"2026-03-16T20:04:29.451072","MEAN_MOTION":15.27596807,"ECCENTRICITY":0.0001034,"INCLINATION":42.9989,"RA_OF_ASC_NODE":270.4152,"ARG_OF_PERICENTER":265.3959,"MEAN_ANOMALY":94.6774,"EPHEMERIS_TYPE":0,"CLASSIFICATION_TYPE":"U","NORAD_CAT_ID":59078,"ELEMENT_SET_NO":999,"REV_AT_EPOCH":11536,"BSTAR":-5.7316e-5,"MEAN_MOTION_DOT":-1.84e-5,"MEAN_MOTION_DDOT":0},{"OBJECT_NAME":"STARLINK-31257","OBJECT_ID":"2024-041F","EPOCH":"2026-03-16T05:33:02.771712","MEAN_MOTION":15.2757391,"ECCENTRICITY":0.00012677,"INCLINATION":43.0013,"RA_OF_ASC_NODE":273.6154,"ARG_OF_PERICENTER":270.0565,"MEAN_ANOMALY":90.0141,"EPHEMERIS_TYPE":0,"CLASSIFICATION_TYPE":"U","NORAD_CAT_ID":59079,"ELEMENT_SET_NO":999,"REV_AT_EPOCH":11527,"BSTAR":-6.377843e-6,"MEAN_MOTION_DOT":-4.38e-6,"MEAN_MOTION_DDOT":0},{"OBJECT_NAME":"STARLINK-31299","OBJECT_ID":"2024-041G","EPOCH":"2026-03-16T20:50:26.702304","MEAN_MOTION":15.95379338,"ECCENTRICITY":0.0022623,"INCLINATION":42.9799,"RA_OF_ASC_NODE":146.5866,"ARG_OF_PERICENTER":49.663,"MEAN_ANOMALY":310.6218,"EPHEMERIS_TYPE":0,"CLASSIFICATION_TYPE":"U","NORAD_CAT_ID":59080,"ELEMENT_SET_NO":999,"REV_AT_EPOCH":11682,"BSTAR":0.002244,"MEAN_MOTION_DOT":0.00942784,"MEAN_MOTION_DDOT":0.00040232},{"OBJECT_NAME":"STARLINK-31292","OBJECT_ID":"2024-041H","EPOCH":"2026-03-16T21:01:37.003008","MEAN_MOTION":15.27600676,"ECCENTRICITY":0.0001196,"INCLINATION":42.9989,"RA_OF_ASC_NODE":269.8584,"ARG_OF_PERICENTER":261.9505,"MEAN_ANOMALY":98.1211,"EPHEMERIS_TYPE":0,"CLASSIFICATION_TYPE":"U","NORAD_CAT_ID":59081,"ELEMENT_SET_NO":999,"REV_AT_EPOCH":11536,"BSTAR":0.000145,"MEAN_MOTION_DOT":3.733e-5,"MEAN_MOTION_DDOT":0},{"OBJECT_NAME":"STARLINK-31286","OBJECT_ID":"2024-041J","EPOCH":"2026-03-16T19:33:03.032352","MEAN_MOTION":15.27583265,"ECCENTRICITY":0.0001615,"INCLINATION":42.999,"RA_OF_ASC_NODE":270.2561,"ARG_OF_PERICENTER":271.0508,"MEAN_ANOMALY":89.0158,"EPHEMERIS_TYPE":0,"CLASSIFICATION_TYPE":"U","NORAD_CAT_ID":59082,"ELEMENT_SET_NO":999,"REV_AT_EPOCH":11544,"BSTAR":0.00026161,"MEAN_MOTION_DOT":6.944e-5,"MEAN_MOTION_DDOT":0},{"OBJECT_NAME":"STARLINK-31252","OBJECT_ID":"2024-041K","EPOCH":"2026-03-16T00:34:21.356256","MEAN_MOTION":15.27563819,"ECCENTRICITY":9.546e-5,"INCLINATION":43.0024,"RA_OF_ASC_NODE":191.7448,"ARG_OF_PERICENTER":291.8439,"MEAN_ANOMALY":68.2311,"EPHEMERIS_TYPE":0,"CLASSIFICATION_TYPE":"U","NORAD_CAT_ID":59083,"ELEMENT_SET_NO":999,"REV_AT_EPOCH":11624,"BSTAR":-1.2191133e-5,"MEAN_MOTION_DOT":-5.97e-6,"MEAN_MOTION_DDOT":0},{"OBJECT_NAME":"STARLINK-31261","OBJECT_ID":"2024-041L","EPOCH":"2026-03-16T20:13:45.110208","MEAN_MOTION":15.27584785,"ECCENTRICITY":0.0001321,"INCLINATION":43.0032,"RA_OF_ASC_NODE":270.4633,"ARG_OF_PERICENTER":281.8809,"MEAN_ANOMALY":78.1894,"EPHEMERIS_TYPE":0,"CLASSIFICATION_TYPE":"U","NORAD_CAT_ID":59084,"ELEMENT_SET_NO":999,"REV_AT_EPOCH":11541,"BSTAR":-5.2535e-6,"MEAN_MOTION_DOT":-4.07e-6,"MEAN_MOTION_DDOT":0},{"OBJECT_NAME":"STARLINK-31290","OBJECT_ID":"2024-041M","EPOCH":"2026-03-16T19:09:56.357280","MEAN_MOTION":15.27533044,"ECCENTRICITY":3.18e-5,"INCLINATION":42.9985,"RA_OF_ASC_NODE":256.2859,"ARG_OF_PERICENTER":284.2556,"MEAN_ANOMALY":75.826,"EPHEMERIS_TYPE":0,"CLASSIFICATION_TYPE":"U","NORAD_CAT_ID":59085,"ELEMENT_SET_NO":999,"REV_AT_EPOCH":11566,"BSTAR":0.00043502,"MEAN_MOTION_DOT":0.00011711,"MEAN_MOTION_DDOT":0},{"OBJECT_NAME":"STARLINK-31279","OBJECT_ID":"2024-041N","EPOCH":"2026-03-16T14:17:29.907456","MEAN_MOTION":15.27550431,"ECCENTRICITY":7.9e-5,"INCLINATION":43.0009,"RA_OF_ASC_NODE":272.0458,"ARG_OF_PERICENTER":229.7025,"MEAN_ANOMALY":130.3758,"EPHEMERIS_TYPE":0,"CLASSIFICATION_TYPE":"U","NORAD_CAT_ID":59086,"ELEMENT_SET_NO":999,"REV_AT_EPOCH":11537,"BSTAR":4.2509e-5,"MEAN_MOTION_DOT":9.07e-6,"MEAN_MOTION_DDOT":0},{"OBJECT_NAME":"STARLINK-31266","OBJECT_ID":"2024-041P","EPOCH":"2026-03-15T13:49:38.972928","MEAN_MOTION":15.27560528,"ECCENTRICITY":0.00013144,"INCLINATION":42.9997,"RA_OF_ASC_NODE":277.2992,"ARG_OF_PERICENTER":279.7121,"MEAN_ANOMALY":80.3582,"EPHEMERIS_TYPE":0,"CLASSIFICATION_TYPE":"U","NORAD_CAT_ID":59087,"ELEMENT_SET_NO":999,"REV_AT_EPOCH":11522,"BSTAR":-4.838607e-5,"MEAN_MOTION_DOT":-1.592e-5,"MEAN_MOTION_DDOT":0},{"OBJECT_NAME":"STARLINK-31313","OBJECT_ID":"2024-041Q","EPOCH":"2026-03-16T05:34:52.538592","MEAN_MOTION":15.27584651,"ECCENTRICITY":7.782e-5,"INCLINATION":42.9993,"RA_OF_ASC_NODE":273.6253,"ARG_OF_PERICENTER":269.1641,"MEAN_ANOMALY":90.9121,"EPHEMERIS_TYPE":0,"CLASSIFICATION_TYPE":"U","NORAD_CAT_ID":59088,"ELEMENT_SET_NO":999,"REV_AT_EPOCH":11527,"BSTAR":4.5028606e-5,"MEAN_MOTION_DOT":9.78e-6,"MEAN_MOTION_DDOT":0}]
